[{"OBJECT_NAME":"APRIZESAT 2","OBJECT_ID":"2004-025A","EPOCH":"2022-08-18T11:19:03.942624","MEAN_MOTION":14.36834782,"ECCENTRICITY":0.0108126,"INCLINATION":98.1575,"RA_OF_ASC_NODE":96.4188,"ARG_OF_PERICENTER":148.0619,"MEAN_ANOMALY":212.7184,"EPHEMERIS_TYPE":0,"CLASSIFICATION_TYPE":"U","NORAD_CAT_ID":28366,"ELEMENT_SET_NO":999,"REV_AT_EPOCH":95072,"BSTAR":3.6031e-5,"MEAN_MOTION_DOT":7.2e-7,"MEAN_MOTION_DDOT":0},{"OBJECT_NAME":"SAUDICOMSAT 1","OBJECT_ID":"2004-025D","EPOCH":"2022-08-18T16:40:34.567392","MEAN_MOTION":14.52831994,"ECCENTRICITY":0.0033176,"INCLINATION":98.4452,"RA_OF_ASC_NODE":192.7345,"ARG_OF_PERICENTER":346.562,"MEAN_ANOMALY":13.4688,"EPHEMERIS_TYPE":0,"CLASSIFICATION_TYPE":"U","NORAD_CAT_ID":28369,"ELEMENT_SET_NO":999,"REV_AT_EPOCH":96088,"BSTAR":8.2869e-5,"MEAN_MOTION_DOT":2.95e-6,"MEAN_MOTION_DDOT":0},{"OBJECT_NAME":"SAUDICOMSAT 2","OBJECT_ID":"2004-025E","EPOCH":"2022-08-18T16:11:44.117088","MEAN_MOTION":14.47725673,"ECCENTRICITY":0.005775,"INCLINATION":98.5369,"RA_OF_ASC_NODE":191.8786,"ARG_OF_PERICENTER":172.0097,"MEAN_ANOMALY":188.2029,"EPHEMERIS_TYPE":0,"CLASSIFICATION_TYPE":"U","NORAD_CAT_ID":28370,"ELEMENT_SET_NO":999,"REV_AT_EPOCH":95763,"BSTAR":6.3073e-5,"MEAN_MOTION_DOT":1.9e-6,"MEAN_MOTION_DDOT":0},{"OBJECT_NAME":"APRIZESAT 1","OBJECT_ID":"2004-025G","EPOCH":"2022-08-18T17:10:12.490176","MEAN_MOTION":14.49826416,"ECCENTRICITY":0.004748,"INCLINATION":98.4979,"RA_OF_ASC_NODE":192.0974,"ARG_OF_PERICENTER":86.1315,"MEAN_ANOMALY":274.5305,"EPHEMERIS_TYPE":0,"CLASSIFICATION_TYPE":"U","NORAD_CAT_ID":28372,"ELEMENT_SET_NO":999,"REV_AT_EPOCH":95912,"BSTAR":6.0065e-5,"MEAN_MOTION_DOT":1.88e-6,"MEAN_MOTION_DDOT":0},{"OBJECT_NAME":"NANOSAT-1","OBJECT_ID":"2004-049B","EPOCH":"2022-08-18T06:45:10.774080","MEAN_MOTION":14.74064477,"ECCENTRICITY":0.0005846,"INCLINATION":98.1152,"RA_OF_ASC_NODE":331.1238,"ARG_OF_PERICENTER":95.2484,"MEAN_ANOMALY":264.9391,"EPHEMERIS_TYPE":0,"CLASSIFICATION_TYPE":"U","NORAD_CAT_ID":28493,"ELEMENT_SET_NO":999,"REV_AT_EPOCH":94898,"BSTAR":0.00010291,"MEAN_MOTION_DOT":6.26e-6,"MEAN_MOTION_DDOT":0},{"OBJECT_NAME":"SAUDICOMSAT 7","OBJECT_ID":"2007-012C","EPOCH":"2022-08-19T02:35:24.901440","MEAN_MOTION":14.62139506,"ECCENTRICITY":0.0058359,"INCLINATION":98.1869,"RA_OF_ASC_NODE":176.3881,"ARG_OF_PERICENTER":254.6139,"MEAN_ANOMALY":104.861,"EPHEMERIS_TYPE":0,"CLASSIFICATION_TYPE":"U","NORAD_CAT_ID":31119,"ELEMENT_SET_NO":999,"REV_AT_EPOCH":81791,"BSTAR":7.7789e-5,"MEAN_MOTION_DOT":3.5e-6,"MEAN_MOTION_DDOT":0},{"OBJECT_NAME":"SAUDICOMSAT 6","OBJECT_ID":"2007-012E","EPOCH":"2022-08-18T12:13:07.307904","MEAN_MOTION":14.5892039,"ECCENTRICITY":0.0076299,"INCLINATION":98.2276,"RA_OF_ASC_NODE":171.0797,"ARG_OF_PERICENTER":0.727,"MEAN_ANOMALY":359.4027,"EPHEMERIS_TYPE":0,"CLASSIFICATION_TYPE":"U","NORAD_CAT_ID":31121,"ELEMENT_SET_NO":999,"REV_AT_EPOCH":81606,"BSTAR":0.0001002,"MEAN_MOTION_DOT":4.38e-6,"MEAN_MOTION_DDOT":0},{"OBJECT_NAME":"SAUDICOMSAT 5","OBJECT_ID":"2007-012H","EPOCH":"2022-08-18T16:34:52.686912","MEAN_MOTION":14.63864444,"ECCENTRICITY":0.0050742,"INCLINATION":98.1559,"RA_OF_ASC_NODE":177.5114,"ARG_OF_PERICENTER":200.6942,"MEAN_ANOMALY":159.2206,"EPHEMERIS_TYPE":0,"CLASSIFICATION_TYPE":"U","NORAD_CAT_ID":31124,"ELEMENT_SET_NO":999,"REV_AT_EPOCH":81869,"BSTAR":7.1479e-5,"MEAN_MOTION_DOT":3.3e-6,"MEAN_MOTION_DDOT":0},{"OBJECT_NAME":"SAUDICOMSAT 3","OBJECT_ID":"2007-012J","EPOCH":"2022-08-18T16:08:08.543040","MEAN_MOTION":14.65690893,"ECCENTRICITY":0.0043674,"INCLINATION":98.1216,"RA_OF_ASC_NODE":178.9218,"ARG_OF_PERICENTER":146.4634,"MEAN_ANOMALY":213.9348,"EPHEMERIS_TYPE":0,"CLASSIFICATION_TYPE":"U","NORAD_CAT_ID":31125,"ELEMENT_SET_NO":999,"REV_AT_EPOCH":81962,"BSTAR":8.9903e-5,"MEAN_MOTION_DOT":4.46e-6,"MEAN_MOTION_DDOT":0},{"OBJECT_NAME":"SAUDICOMSAT 4","OBJECT_ID":"2007-012L","EPOCH":"2022-08-18T10:08:38.765760","MEAN_MOTION":14.60650919,"ECCENTRICITY":0.0066592,"INCLINATION":98.2096,"RA_OF_ASC_NODE":174.0946,"ARG_OF_PERICENTER":306.5442,"MEAN_ANOMALY":52.9639,"EPHEMERIS_TYPE":0,"CLASSIFICATION_TYPE":"U","NORAD_CAT_ID":31127,"ELEMENT_SET_NO":999,"REV_AT_EPOCH":81698,"BSTAR":9.6e-5,"MEAN_MOTION_DOT":4.31e-6,"MEAN_MOTION_DDOT":0},{"OBJECT_NAME":"APRIZESAT 4","OBJECT_ID":"2009-041D","EPOCH":"2022-08-18T07:30:28.659744","MEAN_MOTION":14.79700936,"ECCENTRICITY":0.004744,"INCLINATION":98.3106,"RA_OF_ASC_NODE":246.0779,"ARG_OF_PERICENTER":151.9132,"MEAN_ANOMALY":208.4653,"EPHEMERIS_TYPE":0,"CLASSIFICATION_TYPE":"U","NORAD_CAT_ID":35684,"ELEMENT_SET_NO":999,"REV_AT_EPOCH":70426,"BSTAR":6.9201e-5,"MEAN_MOTION_DOT":4.71e-6,"MEAN_MOTION_DDOT":0},{"OBJECT_NAME":"APRIZESAT 3","OBJECT_ID":"2009-041F","EPOCH":"2022-08-18T12:01:43.703328","MEAN_MOTION":14.88010398,"ECCENTRICITY":0.0071604,"INCLINATION":98.1062,"RA_OF_ASC_NODE":318.5576,"ARG_OF_PERICENTER":344.6941,"MEAN_ANOMALY":15.2108,"EPHEMERIS_TYPE":0,"CLASSIFICATION_TYPE":"U","NORAD_CAT_ID":35686,"ELEMENT_SET_NO":999,"REV_AT_EPOCH":70783,"BSTAR":6.7607e-5,"MEAN_MOTION_DOT":5.86e-6,"MEAN_MOTION_DDOT":0},{"OBJECT_NAME":"AISSAT 1","OBJECT_ID":"2010-035C","EPOCH":"2022-08-18T18:09:44.574624","MEAN_MOTION":14.87217018,"ECCENTRICITY":0.0010321,"INCLINATION":98.2401,"RA_OF_ASC_NODE":56.9949,"ARG_OF_PERICENTER":334.5145,"MEAN_ANOMALY":25.556,"EPHEMERIS_TYPE":0,"CLASSIFICATION_TYPE":"U","NORAD_CAT_ID":36797,"ELEMENT_SET_NO":999,"REV_AT_EPOCH":65570,"BSTAR":0.00012324,"MEAN_MOTION_DOT":1.051e-5,"MEAN_MOTION_DDOT":0},{"OBJECT_NAME":"S-NET D","OBJECT_ID":"2018-014G","EPOCH":"2022-08-18T06:47:11.284800","MEAN_MOTION":14.98085081,"ECCENTRICITY":0.0012634,"INCLINATION":97.6518,"RA_OF_ASC_NODE":134.8307,"ARG_OF_PERICENTER":91.4414,"MEAN_ANOMALY":268.8256,"EPHEMERIS_TYPE":0,"CLASSIFICATION_TYPE":"U","NORAD_CAT_ID":43186,"ELEMENT_SET_NO":999,"REV_AT_EPOCH":24817,"BSTAR":0.00020009,"MEAN_MOTION_DOT":2.313e-5,"MEAN_MOTION_DDOT":0},{"OBJECT_NAME":"S-NET B","OBJECT_ID":"2018-014H","EPOCH":"2022-08-18T16:24:35.566272","MEAN_MOTION":14.98083891,"ECCENTRICITY":0.001265,"INCLINATION":97.6515,"RA_OF_ASC_NODE":135.1723,"ARG_OF_PERICENTER":90.2712,"MEAN_ANOMALY":269.996,"EPHEMERIS_TYPE":0,"CLASSIFICATION_TYPE":"U","NORAD_CAT_ID":43187,"ELEMENT_SET_NO":999,"REV_AT_EPOCH":24823,"BSTAR":0.00019025,"MEAN_MOTION_DOT":2.196e-5,"MEAN_MOTION_DDOT":0},{"OBJECT_NAME":"S-NET A","OBJECT_ID":"2018-014J","EPOCH":"2022-08-18T13:12:39.578112","MEAN_MOTION":14.98082863,"ECCENTRICITY":0.0012653,"INCLINATION":97.652,"RA_OF_ASC_NODE":135.1086,"ARG_OF_PERICENTER":90.7459,"MEAN_ANOMALY":269.5213,"EPHEMERIS_TYPE":0,"CLASSIFICATION_TYPE":"U","NORAD_CAT_ID":43188,"ELEMENT_SET_NO":999,"REV_AT_EPOCH":24821,"BSTAR":0.00018916,"MEAN_MOTION_DOT":2.183e-5,"MEAN_MOTION_DDOT":0},{"OBJECT_NAME":"S-NET C","OBJECT_ID":"2018-014K","EPOCH":"2022-08-19T05:15:39.386304","MEAN_MOTION":14.98083945,"ECCENTRICITY":0.0012752,"INCLINATION":97.6515,"RA_OF_ASC_NODE":135.6853,"ARG_OF_PERICENTER":88.4159,"MEAN_ANOMALY":271.8524,"EPHEMERIS_TYPE":0,"CLASSIFICATION_TYPE":"U","NORAD_CAT_ID":43189,"ELEMENT_SET_NO":999,"REV_AT_EPOCH":24686,"BSTAR":0.00019859,"MEAN_MOTION_DOT":2.295e-5,"MEAN_MOTION_DDOT":0}]