APRIZESAT 2             
1 28366U 04025A   22230.47157341  .00000072  00000+0  36031-4 0  9992
2 28366  98.1575  96.4188 0108126 148.0619 212.7184 14.36834782950729
SAUDICOMSAT 1           
1 28369U 04025D   22230.69484453  .00000295  00000+0  82869-4 0  9993
2 28369  98.4452 192.7345 0033176 346.5620  13.4688 14.52831994960886
SAUDICOMSAT 2           
1 28370U 04025E   22230.67481617  .00000190  00000+0  63073-4 0  9992
2 28370  98.5369 191.8786 0057750 172.0097 188.2029 14.47725673957638
APRIZESAT 1             
1 28372U 04025G   22230.71542234  .00000188  00000+0  60065-4 0  9997
2 28372  98.4979 192.0974 0047480  86.1315 274.5305 14.49826416959126
NANOSAT-1               
1 28493U 04049B   22230.28137470  .00000626  00000+0  10291-3 0  9993
2 28493  98.1152 331.1238 0005846  95.2484 264.9391 14.74064477948986
SAUDICOMSAT 7           
1 31119U 07012C   22231.10792710  .00000350  00000+0  77789-4 0  9991
2 31119  98.1869 176.3881 0058359 254.6139 104.8610 14.62139506817915
SAUDICOMSAT 6           
1 31121U 07012E   22230.50911236  .00000438  00000+0  10020-3 0  9994
2 31121  98.2276 171.0797 0076299   0.7270 359.4027 14.58920390816067
SAUDICOMSAT 5           
1 31124U 07012H   22230.69088758  .00000330  00000+0  71479-4 0  9998
2 31124  98.1559 177.5114 0050742 200.6942 159.2206 14.63864444818698
SAUDICOMSAT 3           
1 31125U 07012J   22230.67232110  .00000446  00000+0  89903-4 0  9999
2 31125  98.1216 178.9218 0043674 146.4634 213.9348 14.65690893819626
SAUDICOMSAT 4           
1 31127U 07012L   22230.42267090  .00000431  00000+0  96000-4 0  9999
2 31127  98.2096 174.0946 0066592 306.5442  52.9639 14.60650919816980
APRIZESAT 4             
1 35684U 09041D   22230.31283171  .00000471  00000+0  69201-4 0  9998
2 35684  98.3106 246.0779 0047440 151.9132 208.4653 14.79700936704264
APRIZESAT 3             
1 35686U 09041F   22230.50120027  .00000586  00000+0  67607-4 0  9996
2 35686  98.1062 318.5576 0071604 344.6941  15.2108 14.88010398707834
AISSAT 1                
1 36797U 10035C   22230.75676591  .00001051  00000+0  12324-3 0  9997
2 36797  98.2401  56.9949 0010321 334.5145  25.5560 14.87217018655707
S-NET D                 
1 43186U 18014G   22230.28276950  .00002313  00000+0  20009-3 0  9996
2 43186  97.6518 134.8307 0012634  91.4414 268.8256 14.98085081248178
S-NET B                 
1 43187U 18014H   22230.68374498  .00002196  00000+0  19025-3 0  9992
2 43187  97.6515 135.1723 0012650  90.2712 269.9960 14.98083891248236
S-NET A                 
1 43188U 18014J   22230.55045808  .00002183  00000+0  18916-3 0  9993
2 43188  97.6520 135.1086 0012653  90.7459 269.5213 14.98082863248214
S-NET C                 
1 43189U 18014K   22231.21920586  .00002295  00000+0  19859-3 0  9994
2 43189  97.6515 135.6853 0012752  88.4159 271.8524 14.98083945246869
